COSMOS 2251 DEB         
1 35580U 93036ALX 23338.72630521  .00002189  00000+0  15965-2 0  9994
2 35580  73.9090 349.8002 0290781 137.0508 225.3721 13.78394106520537
COSMOS 2251 DEB         
1 35583U 93036AMA 23339.40066078  .00000649  00000+0  62302-3 0  9990
2 35583  73.9199 326.2184 0387612 128.1772 235.4928 13.52940136724173
COSMOS 2251 DEB         
1 35584U 93036AMB 23339.99048919  .00017082  00000+0  47065-2 0  9996
2 35584  74.0794 182.5785 0101482 352.5872   7.3778 14.43831019751056
COSMOS 2251 DEB         
1 35585U 93036AMC 23339.42735413  .00004692  00000+0  36907-2 0  9993
2 35585  73.9720 136.1086 0323221 199.4601 191.4888 13.70332188539310
COSMOS 2251 DEB         
1 35586U 93036AMD 23331.95810279  .00000826  00000+0  78635-3 0  9998
2 35586  74.0237  55.5630 0407696  85.8132  28.3215 13.50325660503083
COSMOS 2251 DEB         
1 35587U 93036AME 23338.53511427  .00001778  00000+0  29505-3 0  9992
2 35587  74.0079  53.3749 0107792  63.7269 297.4927 14.67191236554887
COSMOS 2251 DEB         
1 35591U 93036AMJ 23339.16334165  .00071098  00000+0  57603-2 0  9990
2 35591  73.9644 257.6520 0028166 208.7133 151.2505 14.99021481774806
COSMOS 2251 DEB         
1 35592U 93036AMK 23336.04770571  .00033537  00000+0  21131-2 0  9993
2 35592  74.0033 102.1882 0086961  41.2523 319.5193 15.05855406787813
COSMOS 2251 DEB         
1 35593U 93036AML 23338.88265326  .00002463  00000+0  11013-2 0  9997
2 35593  74.0869 172.4714 0110406   5.9049 354.3366 14.19945788745569
COSMOS 2251 DEB         
1 35594U 93036AMM 23339.46630084  .00006500  00000+0  12173-2 0  9994
2 35594  73.8155 130.0490 0051382  20.1851 340.1331 14.64160062772977
COSMOS 2251 DEB         
1 35602U 93036AMV 23339.30922378  .00007522  00000+0  38790-3 0  9996
2 35602  74.0202 294.0453 0142574 197.4882 315.2821 15.08016077788709
COSMOS 2251 DEB         
1 35604U 93036AMX 23336.04867764  .00062814  00000+0  14378-1 0  9992
2 35604  74.0142 214.2583 0046128  85.0654 275.5773 14.54591764580412
COSMOS 2251 DEB         
1 35605U 93036AMY 23336.46557003  .00051505  00000+0  10522-1 0  9993
2 35605  73.9038  17.3692 0082513 110.0288 250.9784 14.58435837549830
COSMOS 2251 DEB         
1 35606U 93036AMZ 23339.77370382  .00000816  00000+0  83879-3 0  9990
2 35606  73.8086 104.8534 0460838  65.1219 299.7053 13.39012816511536
COSMOS 2251 DEB         
1 35611U 93036ANE 23337.49511098  .00008588  00000+0  22435-2 0  9998
2 35611  74.0309 153.7592 0038071  47.9164 312.5223 14.49102884764841
COSMOS 2251 DEB         
1 35614U 93036ANH 23339.25753588  .00006511  00000+0  14333-2 0  9991
2 35614  73.9632 305.7525 0094050 328.9479  30.6143 14.54904364769445
COSMOS 2251 DEB         
1 35643U 93036ANJ 23339.63795997  .00013986  00000+0  19010-2 0  9996
2 35643  74.0054 207.5595 0037832 156.3483 203.9443 14.78328266773211
COSMOS 2251 DEB         
1 35645U 93036ANL 23340.11444822  .00004928  00000+0  18074-2 0  9996
2 35645  73.9748  13.2005 0086954 331.7658  27.8791 14.30949367766143
COSMOS 2251 DEB         
1 35646U 93036ANM 23338.88457503  .00000978  00000+0  99447-3 0  9993
2 35646  73.8687 146.4046 0467723  21.8226  45.1894 13.38477812719631
COSMOS 2251 DEB         
1 35647U 93036ANN 23327.09866510  .00003448  00000+0  11445-2 0  9993
2 35647  74.0253 244.1132 0052076 168.7681 191.4649 14.37381580568544
COSMOS 2251 DEB         
1 35650U 93036ANR 23339.52244894  .00006358  00000+0  13591-2 0  9990
2 35650  74.0581   9.6626 0030922 266.4639 249.2282 14.58698839767849
COSMOS 2251 DEB         
1 35655U 93036ANW 23333.18611124  .00092491  00000+0  68072-2 0  9992
2 35655  73.9839 149.7742 0011438 130.9724 229.2455 15.02826465776909
COSMOS 2251 DEB         
1 35658U 93036ANZ 23338.40622119  .00020795  00000+0  32326-2 0  9992
2 35658  74.0090 344.0031 0020301 265.7180  94.1673 14.72854786769575
COSMOS 2251 DEB         
1 35660U 93036APB 23339.96635797  .00001718  00000+0  49305-3 0  9993
2 35660  74.0434  73.4261 0018502  39.4037  80.0840 14.45575340759659
COSMOS 2251 DEB         
1 35661U 93036APC 23338.73669308  .00005017  00000+0  73566-3 0  9995
2 35661  74.0203  94.7191 0116877  26.0686 334.6306 14.71234837769443
COSMOS 2251 DEB         
1 35663U 93036APE 23335.02837783  .00009753  00000+0  24966-2 0  9990
2 35663  74.0259  98.6502 0013647 357.4880   2.6209 14.50419465625571
COSMOS 2251 DEB         
1 35667U 93036APJ 23336.69226393  .00007380  00000+0  19422-2 0  9992
2 35667  74.0667 100.0981 0029097 348.3847  11.6638 14.48963309600280
COSMOS 2251 DEB         
1 35668U 93036APK 23338.27894784  .00001961  00000+0  39358-3 0  9994
2 35668  74.0441 195.6174 0087348 131.5676 229.3022 14.59983056768407
COSMOS 2251 DEB         
1 35669U 93036APL 23336.55656516  .00001086  00000+0  98610-3 0  9997
2 35669  73.8630 285.5982 0396088 165.4826 195.8066 13.54259821720445
COSMOS 2251 DEB         
1 35670U 93036APM 23334.04390301  .00015507  00000+0  25472-2 0  9996
2 35670  73.9042 103.8180 0056197 237.9625 121.6079 14.69587803767187
COSMOS 2251 DEB         
1 35671U 93036APN 23338.58394954  .00001082  00000+0  30704-3 0  9996
2 35671  74.0197  22.8915 0041629  13.6306 138.6115 14.46172254761825
COSMOS 2251 DEB         
1 35672U 93036APP 23339.67814169  .00017879  00000+0  23864-2 0  9992
2 35672  74.0515 223.6072 0035051 110.2348 282.0341 14.79117761768221
COSMOS 2251 DEB         
1 35674U 93036APR 23339.21602594  .00003803  00000+0  10985-2 0  9993
2 35674  74.0644 256.1917 0118720 132.4454 228.6816 14.40862041754240
COSMOS 2251 DEB         
1 35675U 93036APS 23334.27909400  .00019400  00000+0  43421-2 0  9992
2 35675  74.0081 184.6628 0039236  61.2859 299.2239 14.56160626545194
COSMOS 2251 DEB         
1 35676U 93036APT 23340.04235341  .00034706  00000+0  31560-2 0  9998
2 35676  73.9981 188.9778 0022767 138.4904  12.7964 14.94861128775436
COSMOS 2251 DEB         
1 35699U 93036APU 23334.46645466  .00133237  00000+0  42534-2 0  9997
2 35699  73.9869 141.1707 0039659  74.1282 286.4286 15.31112232495503
COSMOS 2251 DEB         
1 35701U 93036APW 23334.05558015  .00005359  00000+0  40110-2 0  9990
2 35701  74.0089 107.4081 0304985 115.1678 248.1403 13.75054862519137
COSMOS 2251 DEB         
1 35702U 93036APX 23338.45266870  .00039062  00000+0  43952-2 0  9999
2 35702  74.0247 258.0336 0019319 168.1150 192.0490 14.86346689552759
COSMOS 2251 DEB         
1 35703U 93036APY 23338.92261706  .00005266  00000+0  74579-3 0  9994
2 35703  74.0501  62.6040 0091355 328.5937  30.9798 14.74453085785787
COSMOS 2251 DEB         
1 35705U 93036AQA 23335.99242853  .00030285  00000+0  88491-2 0  9998
2 35705  74.2947  82.0133 0053002 278.9650  80.5511 14.43058503751274
COSMOS 2251 DEB         
1 35706U 93036AQB 23338.30219091  .00002197  00000+0  18802-2 0  9995
2 35706  73.8890 201.0839 0354486  25.0765 336.7102 13.62281122519786
COSMOS 2251 DEB         
1 35709U 93036AQE 23335.27721287  .00019400  00000+0  44355-2 0  9993
2 35709  74.0004 192.0925 0046401  94.6330 266.0134 14.54982762550920
COSMOS 2251 DEB         
1 35711U 93036AQG 23338.30023003  .00001879  00000+0  37678-3 0  9996
2 35711  74.0457 195.1668 0089296 126.9030 234.0361 14.59955986769650
COSMOS 2251 DEB         
1 35716U 93036AQM 23338.88202869  .00001113  00000+0  23427-3 0  9991
2 35716  73.9918 166.0511 0092021 186.9053 238.9026 14.58175614770092
COSMOS 2251 DEB         
1 35717U 93036AQN 23337.77037977  .00006295  00000+0  23941-2 0  9991
2 35717  74.1711 120.8821 0090459 184.1612 175.8797 14.28881153634949
COSMOS 2251 DEB         
1 35718U 93036AQP 23334.37274888  .00012349  00000+0  31261-2 0  9990
2 35718  74.0415 107.6095 0020510 343.7573  16.2928 14.50829621549942
COSMOS 2251 DEB         
1 35721U 93036AQS 23330.74883488  .00005783  00000+0  21911-2 0  9998
2 35721  73.9544 101.6542 0169442  50.4745 311.1237 14.23731111471174
COSMOS 2251 DEB         
1 35724U 93036AQV 23339.23076555  .00001550  00000+0  35813-3 0  9998
2 35724  74.0336 264.5954 0064881 244.0422 115.4047 14.54818493767768
COSMOS 2251 DEB         
1 35726U 93036AQX 23336.87301394  .00024849  00000+0  30911-2 0  9998
2 35726  74.0417 169.2025 0030606  91.1182 269.3502 14.82107064772400
COSMOS 2251 DEB         
1 35729U 93036ARA 23336.40364876  .00060577  00000+0  94741-2 0  9993
2 35729  74.0296 224.0008 0029520 194.8679 288.6135 14.72136740771377
COSMOS 2251 DEB         
1 35759U 93036ARD 23338.92651270  .00001814  00000+0  36387-3 0  9994
2 35759  74.0388 191.8967 0082462 140.0365 220.6911 14.60328371777606
COSMOS 2251 DEB         
1 35763U 93036ARH 23328.71515139  .00037679  00000+0  60764-2 0  9991
2 35763  73.8525 328.3218 0063524 333.9465 142.3696 14.69900073507222
COSMOS 2251 DEB         
1 35764U 93036ARJ 23324.76898072  .00004868  00000+0  10566-2 0  9992
2 35764  74.0291 356.8308 0038639 307.4092  52.3557 14.57912998778966
COSMOS 2251 DEB         
1 35765U 93036ARK 23338.89450572  .00090601  00000+0  74935-2 0  9991
2 35765  74.1016  65.4620 0052832 202.3581 157.5303 14.97340641767688
COSMOS 2251 DEB         
1 35771U 93036ARR 23339.41164594  .00007752  00000+0  46145-2 0  9990
2 35771  74.1784 141.9196 0282434 274.4893  82.4024 13.89496552725182
COSMOS 2251 DEB         
1 35773U 93036ART 23339.32480779  .00003907  00000+0  90893-3 0  9996
2 35773  74.0127 308.4629 0056219 286.3247  73.1737 14.54270997760756
COSMOS 2251 DEB         
1 35775U 93036ARV 23338.89768698  .00021092  00000+0  25875-2 0  9990
2 35775  74.0295 165.3272 0027003 127.2152 300.2575 14.82794009775289
COSMOS 2251 DEB         
1 35777U 93036ARX 23339.20309308  .00000589  00000+0  61297-3 0  9994
2 35777  73.7717  61.2890 0454133  64.4042 325.3276 13.39824008697872
COSMOS 2251 DEB         
1 35784U 93036ASE 23339.82146113  .00001260  00000+0  35001-3 0  9994
2 35784  74.0400  32.0334 0044431 343.2113  16.7572 14.46959097760748
